SL-16 R/B,1 22566U 93016B   26030.11944200  .00000293  00000+0  17489-3 0  9997,2 22566  71.0086 296.1936 0009617   9.4690 350.6612 14.15301654696714,-37.64636974319726,-16.93766204686413,850484.9871875051
COSMOS 2242,1 22626U 93024A   26030.12122907  .00003188  00000+0  27841-3 0  9995,2 22626  82.5212 303.6006 0017995  76.0060 284.3161 14.96378057774629,50.326948576015134,15.235161627517682,574731.6467876075
SL-16 R/B,1 22803U 93059B   26030.15121919 -.00000022  00000+0  12739-4 0  9991,2 22803  70.9897  92.4008 0019551 269.0080  90.8804 14.17223165674071,18.900857566922205,-32.092764356985334,841127.8727296335
ARIANE 40 R/B,1 22830U 93061H   26028.75525090  .00000415  00000+0  16793-3 0  9993,2 22830  98.5001  98.4141 0011422  47.3505 312.8640 14.32838698688380,5.476945471929266,-16.185636847429745,790125.1371126996
COSMOS 2278,1 23087U 94023A   26030.05305799 -.00000156  00000+0 -56753-4 0  9990,2 23087  71.0517 255.9330 0006280  86.4869 273.6972 14.14366398639343,-57.72083204566677,-74.75015358901602,870159.5797753908
SL-16 R/B,1 23088U 94023B   26029.48082820 -.00000206  00000+0 -81692-4 0  9999,2 23088  71.0005 153.2300 0004295 321.2380  38.8433 14.15005872640540,-26.723535755861846,-155.85885161370075,848698.2999759243
SL-16 R/B,1 23343U 94074B   26030.03647444  .00000777  00000+0  11086-3 0  9991,2 23343  97.7156  62.4114 0006434   0.4842  55.8664 14.79359406681530,2.8604762562276598,-53.88506161067902,638553.1513530979
SL-16 R/B,1 23405U 94077B   26030.11373568 -.00000208  00000+0 -81807-4 0  9995,2 23405  70.9821  73.6477 0004701 246.6954 113.3674 14.15557826610775,-10.093946004950398,132.31632179020582,845459.7399980708
ARIANE 40+ R/B,1 23561U 95021B   26030.17034264  .00000454  00000+0  15885-3 0  9994,2 23561  98.4576 102.1595 0005731 254.2623 133.0850 14.39742315613707,65.18280408850008,4.009924166342027,773703.9755512656
SL-16 R/B,1 23705U 95058B   26030.04815869 -.00000003  00000+0  22860-4 0  9991,2 23705  71.0192 261.3831 0012869 188.5262 171.5645 14.15487906562389,-34.43128474042742,-50.14991512823506,859742.8355244985
SL-16 R/B,1 24298U 96051B   26030.07252439  .00000084  00000+0  72028-4 0  9993,2 24298  70.7568 256.9793 0018204 201.2437 158.7929 14.12404647516191,-14.238624680023104,144.1104655924833,843372.7146113676
ORBVIEW 2 (SEASTAR),1 24883U 97037A   26030.15103626  .00000483  00000+0  18409-3 0  9995,2 24883  98.8501 193.4563 0002553 152.5189 207.6131 14.35463377502948,-1.6531246392802936,76.42857142972174,775104.4282050885
