CCSDS_OMM_VERS = 2.0
CREATION_DATE  = 
ORIGINATOR     = 

OBJECT_NAME    = SL-16 R/B
OBJECT_ID      = 1993-016B
CENTER_NAME    = EARTH
REF_FRAME      = TEME
TIME_SYSTEM    = UTC
MEAN_ELEMENT_THEORY = SGP/SGP4

EPOCH          = 2026-01-30T02:51:59.788800
MEAN_MOTION    = 14.15301654
ECCENTRICITY   = .0009617
INCLINATION    = 71.0086
RA_OF_ASC_NODE = 296.1936
ARG_OF_PERICENTER = 9.4690
MEAN_ANOMALY   = 350.6612

EPHEMERIS_TYPE = 0
CLASSIFICATION_TYPE = U
NORAD_CAT_ID   = 22566
ELEMENT_SET_NO = 999
REV_AT_EPOCH   = 69671
BSTAR          = .17489E-3
MEAN_MOTION_DOT = .293E-5
MEAN_MOTION_DDOT = 0

CCSDS_OMM_VERS = 2.0
CREATION_DATE  = 
ORIGINATOR     = 

OBJECT_NAME    = COSMOS 2242
OBJECT_ID      = 1993-024A
CENTER_NAME    = EARTH
REF_FRAME      = TEME
TIME_SYSTEM    = UTC
MEAN_ELEMENT_THEORY = SGP/SGP4

EPOCH          = 2026-01-30T02:54:34.191648
MEAN_MOTION    = 14.96378057
ECCENTRICITY   = .0017995
INCLINATION    = 82.5212
RA_OF_ASC_NODE = 303.6006
ARG_OF_PERICENTER = 76.0060
MEAN_ANOMALY   = 284.3161

EPHEMERIS_TYPE = 0
CLASSIFICATION_TYPE = U
NORAD_CAT_ID   = 22626
ELEMENT_SET_NO = 999
REV_AT_EPOCH   = 77462
BSTAR          = .27841E-3
MEAN_MOTION_DOT = .3188E-4
MEAN_MOTION_DDOT = 0

CCSDS_OMM_VERS = 2.0
CREATION_DATE  = 
ORIGINATOR     = 

OBJECT_NAME    = SL-16 R/B
OBJECT_ID      = 1993-059B
CENTER_NAME    = EARTH
REF_FRAME      = TEME
TIME_SYSTEM    = UTC
MEAN_ELEMENT_THEORY = SGP/SGP4

EPOCH          = 2026-01-30T03:37:45.338016
MEAN_MOTION    = 14.17223165
ECCENTRICITY   = .0019551
INCLINATION    = 70.9897
RA_OF_ASC_NODE = 92.4008
ARG_OF_PERICENTER = 269.0080
MEAN_ANOMALY   = 90.8804

EPHEMERIS_TYPE = 0
CLASSIFICATION_TYPE = U
NORAD_CAT_ID   = 22803
ELEMENT_SET_NO = 999
REV_AT_EPOCH   = 67407
BSTAR          = .12739E-4
MEAN_MOTION_DOT = -.22E-6
MEAN_MOTION_DDOT = 0

CCSDS_OMM_VERS = 2.0
CREATION_DATE  = 
ORIGINATOR     = 

OBJECT_NAME    = ARIANE 40 R/B
OBJECT_ID      = 1993-061H
CENTER_NAME    = EARTH
REF_FRAME      = TEME
TIME_SYSTEM    = UTC
MEAN_ELEMENT_THEORY = SGP/SGP4

EPOCH          = 2026-01-28T18:07:33.677760
MEAN_MOTION    = 14.32838698
ECCENTRICITY   = .00114227
INCLINATION    = 98.5001
RA_OF_ASC_NODE = 98.4141
ARG_OF_PERICENTER = 47.3505
MEAN_ANOMALY   = 312.8640

EPHEMERIS_TYPE = 0
CLASSIFICATION_TYPE = U
NORAD_CAT_ID   = 22830
ELEMENT_SET_NO = 999
REV_AT_EPOCH   = 68838
BSTAR          = .16793253E-3
MEAN_MOTION_DOT = .415E-5
MEAN_MOTION_DDOT = 0

CCSDS_OMM_VERS = 2.0
CREATION_DATE  = 
ORIGINATOR     = 

OBJECT_NAME    = COSMOS 2278
OBJECT_ID      = 1994-023A
CENTER_NAME    = EARTH
REF_FRAME      = TEME
TIME_SYSTEM    = UTC
MEAN_ELEMENT_THEORY = SGP/SGP4

EPOCH          = 2026-01-30T01:16:24.210336
MEAN_MOTION    = 14.14366398
ECCENTRICITY   = .000628
INCLINATION    = 71.0517
RA_OF_ASC_NODE = 255.9330
ARG_OF_PERICENTER = 86.4869
MEAN_ANOMALY   = 273.6972

EPHEMERIS_TYPE = 0
CLASSIFICATION_TYPE = U
NORAD_CAT_ID   = 23087
ELEMENT_SET_NO = 999
REV_AT_EPOCH   = 63934
BSTAR          = -.56753E-4
MEAN_MOTION_DOT = -.156E-5
MEAN_MOTION_DDOT = 0

CCSDS_OMM_VERS = 2.0
CREATION_DATE  = 
ORIGINATOR     = 

OBJECT_NAME    = SL-16 R/B
OBJECT_ID      = 1994-023B
CENTER_NAME    = EARTH
REF_FRAME      = TEME
TIME_SYSTEM    = UTC
MEAN_ELEMENT_THEORY = SGP/SGP4

EPOCH          = 2026-01-29T11:32:23.556480
MEAN_MOTION    = 14.15005872
ECCENTRICITY   = .0004295
INCLINATION    = 71.0005
RA_OF_ASC_NODE = 153.2300
ARG_OF_PERICENTER = 321.2380
MEAN_ANOMALY   = 38.8433

EPHEMERIS_TYPE = 0
CLASSIFICATION_TYPE = U
NORAD_CAT_ID   = 23088
ELEMENT_SET_NO = 999
REV_AT_EPOCH   = 64054
BSTAR          = -.81692E-4
MEAN_MOTION_DOT = -.206E-5
MEAN_MOTION_DDOT = 0

CCSDS_OMM_VERS = 2.0
CREATION_DATE  = 
ORIGINATOR     = 

OBJECT_NAME    = SL-16 R/B
OBJECT_ID      = 1994-074B
CENTER_NAME    = EARTH
REF_FRAME      = TEME
TIME_SYSTEM    = UTC
MEAN_ELEMENT_THEORY = SGP/SGP4

EPOCH          = 2026-01-30T00:52:31.391616
MEAN_MOTION    = 14.79359406
ECCENTRICITY   = .0006434
INCLINATION    = 97.7156
RA_OF_ASC_NODE = 62.4114
ARG_OF_PERICENTER = 0.4842
MEAN_ANOMALY   = 55.8664

EPHEMERIS_TYPE = 0
CLASSIFICATION_TYPE = U
NORAD_CAT_ID   = 23343
ELEMENT_SET_NO = 999
REV_AT_EPOCH   = 68153
BSTAR          = .11086E-3
MEAN_MOTION_DOT = .777E-5
MEAN_MOTION_DDOT = 0

CCSDS_OMM_VERS = 2.0
CREATION_DATE  = 
ORIGINATOR     = 

OBJECT_NAME    = SL-16 R/B
OBJECT_ID      = 1994-077B
CENTER_NAME    = EARTH
REF_FRAME      = TEME
TIME_SYSTEM    = UTC
MEAN_ELEMENT_THEORY = SGP/SGP4

EPOCH          = 2026-01-30T02:43:46.762752
MEAN_MOTION    = 14.15557826
ECCENTRICITY   = .0004701
INCLINATION    = 70.9821
RA_OF_ASC_NODE = 73.6477
ARG_OF_PERICENTER = 246.6954
MEAN_ANOMALY   = 113.3674

EPHEMERIS_TYPE = 0
CLASSIFICATION_TYPE = U
NORAD_CAT_ID   = 23405
ELEMENT_SET_NO = 999
REV_AT_EPOCH   = 61077
BSTAR          = -.81807E-4
MEAN_MOTION_DOT = -.208E-5
MEAN_MOTION_DDOT = 0

CCSDS_OMM_VERS = 2.0
CREATION_DATE  = 
ORIGINATOR     = 

OBJECT_NAME    = ARIANE 40+ R/B
OBJECT_ID      = 1995-021B
CENTER_NAME    = EARTH
REF_FRAME      = TEME
TIME_SYSTEM    = UTC
MEAN_ELEMENT_THEORY = SGP/SGP4

EPOCH          = 2026-01-30T04:05:17.604096
MEAN_MOTION    = 14.39742315
ECCENTRICITY   = .0005731
INCLINATION    = 98.4576
RA_OF_ASC_NODE = 102.1595
ARG_OF_PERICENTER = 254.2623
MEAN_ANOMALY   = 133.0850

EPHEMERIS_TYPE = 0
CLASSIFICATION_TYPE = U
NORAD_CAT_ID   = 23561
ELEMENT_SET_NO = 999
REV_AT_EPOCH   = 61370
BSTAR          = .15885E-3
MEAN_MOTION_DOT = .454E-5
MEAN_MOTION_DDOT = 0

CCSDS_OMM_VERS = 2.0
CREATION_DATE  = 
ORIGINATOR     = 

OBJECT_NAME    = SL-16 R/B
OBJECT_ID      = 1995-058B
CENTER_NAME    = EARTH
REF_FRAME      = TEME
TIME_SYSTEM    = UTC
MEAN_ELEMENT_THEORY = SGP/SGP4

EPOCH          = 2026-01-30T01:09:20.910816
MEAN_MOTION    = 14.15487906
ECCENTRICITY   = .0012869
INCLINATION    = 71.0192
RA_OF_ASC_NODE = 261.3831
ARG_OF_PERICENTER = 188.5262
MEAN_ANOMALY   = 171.5645

EPHEMERIS_TYPE = 0
CLASSIFICATION_TYPE = U
NORAD_CAT_ID   = 23705
ELEMENT_SET_NO = 999
REV_AT_EPOCH   = 56238
BSTAR          = .2286E-4
MEAN_MOTION_DOT = -.3E-7
MEAN_MOTION_DDOT = 0

CCSDS_OMM_VERS = 2.0
CREATION_DATE  = 
ORIGINATOR     = 

OBJECT_NAME    = SL-16 R/B
OBJECT_ID      = 1996-051B
CENTER_NAME    = EARTH
REF_FRAME      = TEME
TIME_SYSTEM    = UTC
MEAN_ELEMENT_THEORY = SGP/SGP4

EPOCH          = 2026-01-30T01:44:26.107296
MEAN_MOTION    = 14.12404647
ECCENTRICITY   = .0018204
INCLINATION    = 70.7568
RA_OF_ASC_NODE = 256.9793
ARG_OF_PERICENTER = 201.2437
MEAN_ANOMALY   = 158.7929

EPHEMERIS_TYPE = 0
CLASSIFICATION_TYPE = U
NORAD_CAT_ID   = 24298
ELEMENT_SET_NO = 999
REV_AT_EPOCH   = 51619
BSTAR          = .72028E-4
MEAN_MOTION_DOT = .84E-6
MEAN_MOTION_DDOT = 0

CCSDS_OMM_VERS = 2.0
CREATION_DATE  = 
ORIGINATOR     = 

OBJECT_NAME    = ORBVIEW 2 (SEASTAR)
OBJECT_ID      = 1997-037A
CENTER_NAME    = EARTH
REF_FRAME      = TEME
TIME_SYSTEM    = UTC
MEAN_ELEMENT_THEORY = SGP/SGP4

EPOCH          = 2026-01-30T03:37:29.532864
MEAN_MOTION    = 14.35463377
ECCENTRICITY   = .0002553
INCLINATION    = 98.8501
RA_OF_ASC_NODE = 193.4563
ARG_OF_PERICENTER = 152.5189
MEAN_ANOMALY   = 207.6131

EPHEMERIS_TYPE = 0
CLASSIFICATION_TYPE = U
NORAD_CAT_ID   = 24883
ELEMENT_SET_NO = 999
REV_AT_EPOCH   = 50294
BSTAR          = .18409E-3
MEAN_MOTION_DOT = .483E-5
MEAN_MOTION_DDOT = 0

